[{"OBJECT_NAME":"STARLINK-30254","OBJECT_ID":"2023-115N","EPOCH":"2026-03-09T10:50:33.828288","MEAN_MOTION":15.27574266,"ECCENTRICITY":0.00011626,"INCLINATION":42.9999,"RA_OF_ASC_NODE":104.5001,"ARG_OF_PERICENTER":262.3501,"MEAN_ANOMALY":97.7219,"EPHEMERIS_TYPE":0,"CLASSIFICATION_TYPE":"U","NORAD_CAT_ID":57533,"ELEMENT_SET_NO":999,"REV_AT_EPOCH":14532,"BSTAR":-1.2825096e-5,"MEAN_MOTION_DOT":-6.15e-6,"MEAN_MOTION_DDOT":0},{"OBJECT_NAME":"COSMOS 2535 DEB","OBJECT_ID":"2019-039M","EPOCH":"2026-03-08T03:25:35.903424","MEAN_MOTION":15.28322551,"ECCENTRICITY":0.0014917,"INCLINATION":97.5619,"RA_OF_ASC_NODE":139.2722,"ARG_OF_PERICENTER":329.0964,"MEAN_ANOMALY":30.9396,"EPHEMERIS_TYPE":0,"CLASSIFICATION_TYPE":"U","NORAD_CAT_ID":44641,"ELEMENT_SET_NO":999,"REV_AT_EPOCH":35167,"BSTAR":0.0011539757,"MEAN_MOTION_DOT":0.0003196,"MEAN_MOTION_DDOT":0}]
